{
  "norad_id": 66397,
  "name": "STARLINK-35510",
  "history": [
    {
      "epoch": "2026-03-28T19:12:33.438528",
      "apogee_km": 476.25420417576333,
      "perigee_km": 474.11048588463746,
      "latitude_deg": -45.862469183685874,
      "longitude_deg": 176.5371539199259,
      "semi_major_axis_km": 6853.3193450302,
      "eccentricity": 0.0001564,
      "inclination_deg": 53.1568,
      "raan_deg": 127.9527,
      "arg_perigee_deg": 74.8921,
      "mean_anomaly_deg": 285.2253,
      "mean_motion_rev_day": 15.3021096
    }
  ]
}